CCSDS_OEM_VERS = 1.0
CREATION_DATE  = 2017-05-11T11:17:28
ORIGINATOR     = GMAT USER

META_START
OBJECT_NAME          = MOPSSat_alt_35785_km_RAAN_90_095
OBJECT_ID            = SatId
CENTER_NAME          = Earth
REF_FRAME            = EME2000
TIME_SYSTEM          = UTC
START_TIME           = 2017-01-01T00:00:00.000
USEABLE_START_TIME   = 2017-01-01T00:00:00.000
USEABLE_STOP_TIME    = 2017-01-02T00:00:00.000
STOP_TIME            = 2017-01-02T00:00:00.000
INTERPOLATION        = Lagrange
INTERPOLATION_DEGREE = 7 
META_STOP


                                                                                   

2017-01-01T15:16:40.000   3.003123285334532e+04  -3.365083686329809e+04  -5.820873019174562e-01   1.996922380610271e+00   2.057688974037292e+00  -1.175392114345409e-04
2017-01-01T15:16:50.000   3.005119555247456e+04  -3.363025266481616e+04  -5.832628148977660e-01   1.995617201475785e+00   2.059150535017508e+00  -1.175633706833533e-04
2017-01-01T15:17:00.000   3.007114519453811e+04  -3.360965385424374e+04  -5.844385691721804e-01   1.994310976492583e+00   2.060611401231901e+00  -1.175874707741900e-04
2017-01-01T15:17:10.000   3.009108176900057e+04  -3.358904043861209e+04  -5.856145641442786e-01   1.993003705836622e+00   2.062071571973090e+00  -1.176115116536046e-04
2017-01-01T15:17:20.000   3.011100526535199e+04  -3.356841242493637e+04  -5.867907992184538e-01   1.991695389682758e+00   2.063531046535152e+00  -1.176354932681892e-04
2017-01-01T15:17:30.000   3.013091567313058e+04  -3.354776982019040e+04  -5.879672738013160e-01   1.990386028203130e+00   2.064989824215296e+00  -1.176594155645882e-04
2017-01-01T15:17:40.000   3.015081298186242e+04  -3.352711263136977e+04  -5.891439872981127e-01   1.989075621571169e+00   2.066447904309451e+00  -1.176832784894313e-04
2017-01-01T15:17:50.000   3.017069718132249e+04  -3.350644086521820e+04  -5.903209391282526e-01   1.987764169944237e+00   2.067905286131408e+00  -1.177070819896320e-04
2017-01-01T15:18:00.000   3.019056826121816e+04  -3.348575452855896e+04  -5.914981287064992e-01   1.986451673484641e+00   2.069361968989607e+00  -1.177308260120228e-04
2017-01-01T15:18:10.000   3.021042621130898e+04  -3.346505362816953e+04  -5.926755554500737e-01   1.985138132351706e+00   2.070817952195919e+00  -1.177545105034935e-04
2017-01-01T15:18:20.000   3.023027102094227e+04  -3.344433817126578e+04  -5.938532187511308e-01   1.983823546732475e+00   2.072273235031598e+00  -1.177781354104468e-04
2017-01-01T15:18:30.000   3.025010267951760e+04  -3.342360816501805e+04  -5.950311180042815e-01   1.982507916811019e+00   2.073727816781334e+00  -1.178017006793435e-04
2017-01-01T15:18:40.000   3.026992117636681e+04  -3.340286361667590e+04  -5.962092525994932e-01   1.981191242776347e+00   2.075181696724453e+00  -1.178252062565626e-04
2017-01-01T15:18:50.000   3.028972650107194e+04  -3.338210453323853e+04  -5.973876219408725e-01   1.979873524801499e+00   2.076634874158222e+00  -1.178486520887741e-04
2017-01-01T15:19:00.000   3.030951864320262e+04  -3.336133092172656e+04  -5.985662254311692e-01   1.978554763060786e+00   2.078087348378597e+00  -1.178720381226316e-04
2017-01-01T15:19:10.000   3.032929759237668e+04  -3.334054278911932e+04  -5.997450624753490e-01   1.977234957725814e+00   2.079539118684674e+00  -1.178953643048426e-04
2017-01-01T15:19:20.000   3.034906333823583e+04  -3.331974014237832e+04  -6.009241324792207e-01   1.975914108966963e+00   2.080990184376923e+00  -1.179186305821429e-04
2017-01-01T15:19:30.000   3.036881587043548e+04  -3.329892298845980e+04  -6.021034348487652e-01   1.974592216954193e+00   2.082440544756416e+00  -1.179418369012813e-04
2017-01-01T15:19:40.000   3.038855517862101e+04  -3.327809133433951e+04  -6.032829689887221e-01   1.973269281858618e+00   2.083890199123090e+00  -1.179649832089935e-04
2017-01-01T15:19:50.000   3.040828125241594e+04  -3.325724518702355e+04  -6.044627343019462e-01   1.971945303853188e+00   2.085339146774895e+00  -1.179880694519821e-04
2017-01-01T15:20:00.000   3.042799408139972e+04  -3.323638455357405e+04  -6.056427301879986e-01   1.970620283114324e+00   2.086787387006141e+00  -1.180110955768969e-04
2017-01-01T15:20:10.000   3.044769365516715e+04  -3.321550944104521e+04  -6.068229560467410e-01   1.969294219817862e+00   2.088234919111871e+00  -1.180340615304026e-04
2017-01-01T15:20:20.000   3.046737996307019e+04  -3.319461985675992e+04  -6.080034112627599e-01   1.967967114156627e+00   2.089681742368863e+00  -1.180569672588835e-04
2017-01-01T15:20:30.000   3.048705299453116e+04  -3.317371580797498e+04  -6.091840952242353e-01   1.966638966319163e+00   2.091127856058671e+00  -1.180798127088031e-04
2017-01-01T15:20:40.000   3.050671273892615e+04  -3.315279730200540e+04  -6.103650073159268e-01   1.965309776497630e+00   2.092573259459047e+00  -1.181025978265692e-04
2017-01-01T15:20:50.000   3.052635918603737e+04  -3.313186434574344e+04  -6.115461469463341e-01   1.963979544857242e+00   2.094017951877200e+00  -1.181253225590603e-04
2017-01-01T15:21:00.000   3.054599232560182e+04  -3.311091694613824e+04  -6.127275135206073e-01   1.962648271566743e+00   2.095461932616616e+00  -1.181479868530995e-04
2017-01-01T15:21:10.000   3.056561214741379e+04  -3.308995511008743e+04  -6.139091064466803e-01   1.961315956791527e+00   2.096905200984588e+00  -1.181705906555760e-04
2017-01-01T15:21:20.000   3.058521864106897e+04  -3.306897884470660e+04  -6.150909251200003e-01   1.959982600710739e+00   2.098347756273423e+00  -1.181931339131381e-04
2017-01-01T15:21:30.000   3.060481179615493e+04  -3.304798815712979e+04  -6.162729689348558e-01   1.958648203504626e+00   2.099789597774433e+00  -1.182156165724257e-04
2017-01-01T15:21:40.000   3.062439160225043e+04  -3.302698305450872e+04  -6.174552372843897e-01   1.957312765354468e+00   2.101230724777875e+00  -1.182380385800641e-04
2017-01-01T15:21:50.000   3.064395804873888e+04  -3.300596354421661e+04  -6.186377295492014e-01   1.955976286455563e+00   2.102671136559207e+00  -1.182603998824654e-04
2017-01-01T15:22:00.000   3.066351112506034e+04  -3.298492963357447e+04  -6.198204451126869e-01   1.954638766999803e+00   2.104110832397651e+00  -1.182827004261025e-04
2017-01-01T15:22:10.000   3.068305082061194e+04  -3.296388132995855e+04  -6.210033833550000e-01   1.953300207182516e+00   2.105549811568874e+00  -1.183049401573997e-04
2017-01-01T15:22:20.000   3.070257712518903e+04  -3.294281864032563e+04  -6.221865436797452e-01   1.951960607172274e+00   2.106988073377453e+00  -1.183271190232255e-04
2017-01-01T15:22:30.000   3.072209002854392e+04  -3.292174157168763e+04  -6.233699254872860e-01   1.950619967141074e+00   2.108425617124399e+00  -1.183492369703994e-04
2017-01-01T15:22:40.000   3.074158952048596e+04  -3.290065013100462e+04  -6.245535281807768e-01   1.949278287257542e+00   2.109862442114513e+00  -1.183712939458036e-04
2017-01-01T15:22:50.000   3.076107559062707e+04  -3.287954432545599e+04  -6.257373511508629e-01   1.947935567704159e+00   2.111298547637679e+00  -1.183932898960985e-04
2017-01-01T15:23:00.000   3.078054822857121e+04  -3.285842416223969e+04  -6.269213937870310e-01   1.946591808664515e+00   2.112733932982774e+00  -1.184152247679333e-04
2017-01-01T15:23:10.000   3.080000742391360e+04  -3.283728964857139e+04  -6.281056554776211e-01   1.945247010323244e+00   2.114168597437641e+00  -1.184370985079470e-04
2017-01-01T15:23:20.000   3.081945316605541e+04  -3.281614079188970e+04  -6.292901355984094e-01   1.943901172879098e+00   2.115602540275377e+00  -1.184589110625560e-04
2017-01-01T15:23:30.000   3.083888544445409e+04  -3.279497759958055e+04  -6.304748335279751e-01   1.942554296527403e+00   2.117035760772834e+00  -1.184806623782395e-04
2017-01-01T15:23:40.000   3.085830424852269e+04  -3.277380007908755e+04  -6.316597486415354e-01   1.941206381467077e+00   2.118468258203172e+00  -1.185023524014246e-04
2017-01-01T15:23:50.000   3.087770956807534e+04  -3.275260823742625e+04  -6.328448803381318e-01   1.939857427869716e+00   2.119900031868744e+00  -1.185239810789937e-04
2017-01-01T15:24:00.000   3.089710139288061e+04  -3.273140208167100e+04  -6.340302280133762e-01   1.938507435910582e+00   2.121331081068123e+00  -1.185455483577751e-04
2017-01-01T15:24:10.000   3.091647971277682e+04  -3.271018161882938e+04  -6.352157910664861e-01   1.937156405760617e+00   2.122761405104624e+00  -1.185670541846765e-04
2017-01-01T15:24:20.000   3.093584451736115e+04  -3.268894685617950e+04  -6.364015688813756e-01   1.935804337607894e+00   2.124191003263380e+00  -1.185884985063249e-04
2017-01-01T15:24:30.000   3.095519579624655e+04  -3.266769780099194e+04  -6.375875608422561e-01   1.934451231639934e+00   2.125619874830278e+00  -1.186098812693666e-04
2017-01-01T15:24:40.000   3.097453353900425e+04  -3.264643446059174e+04  -6.387737663301535e-01   1.933097088047652e+00   2.127048019087717e+00  -1.186312024203984e-04
2017-01-01T15:24:50.000   3.099385773518033e+04  -3.262515684234248e+04  -6.399601847238409e-01   1.931741907024349e+00   2.128475435315817e+00  -1.186524619059989e-04
2017-01-01T15:25:00.000   3.101316837431407e+04  -3.260386495362423e+04  -6.411468154010338e-01   1.930385688764303e+00   2.129902122793786e+00  -1.186736596727369e-04
2017-01-01T15:25:10.000   3.103246544594516e+04  -3.258255880182603e+04  -6.423336577388158e-01   1.929028433462289e+00   2.131328080800454e+00  -1.186947956671823e-04
2017-01-01T15:25:20.000   3.105174893968299e+04  -3.256123839427016e+04  -6.435207111178745e-01   1.927670141308757e+00   2.132753308619382e+00  -1.187158698359762e-04
2017-01-01T15:25:30.000   3.107101884516023e+04  -3.253990373826227e+04  -6.447079749196849e-01   1.926310812493033e+00   2.134177805535442e+00  -1.187368821257858e-04
2017-01-01T15:25:40.000   3.109027515203286e+04  -3.251855484109163e+04  -6.458954485265022e-01   1.924950447203320e+00   2.135601570834819e+00  -1.187578324833022e-04
